[{"OBJECT_NAME":"STARLINK-30198","OBJECT_ID":"2023-096A","EPOCH":"2026-03-09T22:00:01.999584","MEAN_MOTION":15.15672992,"ECCENTRICITY":0.00017382,"INCLINATION":42.9995,"RA_OF_ASC_NODE":221.4881,"ARG_OF_PERICENTER":295.0997,"MEAN_ANOMALY":179.6566,"EPHEMERIS_TYPE":0,"CLASSIFICATION_TYPE":"U","NORAD_CAT_ID":57290,"ELEMENT_SET_NO":999,"REV_AT_EPOCH":567,"BSTAR":0.0050728772,"MEAN_MOTION_DOT":0.00099438,"MEAN_MOTION_DDOT":0},{"OBJECT_NAME":"OBJECT D","OBJECT_ID":"2024-094D","EPOCH":"2026-03-09T22:52:46.564608","MEAN_MOTION":15.16422543,"ECCENTRICITY":0.00060254,"INCLINATION":97.3922,"RA_OF_ASC_NODE":142.0851,"ARG_OF_PERICENTER":217.1519,"MEAN_ANOMALY":142.9298,"EPHEMERIS_TYPE":0,"CLASSIFICATION_TYPE":"U","NORAD_CAT_ID":59808,"ELEMENT_SET_NO":999,"REV_AT_EPOCH":10011,"BSTAR":0.0004850971,"MEAN_MOTION_DOT":9.373e-5,"MEAN_MOTION_DDOT":0}]
